{
    "links": {
        "self": "http://www.neowsapp.com/rest/v1/neo/3279676?api_key=iIulBulltgU6a56xZRHN4H3l9WmuAYTsLGpBGhQ2"
    },
    "id": "3279676",
    "neo_reference_id": "3279676",
    "name": "(2005 LV30)",
    "designation": "2005 LV30",
    "nasa_jpl_url": "http://ssd.jpl.nasa.gov/sbdb.cgi?sstr=3279676",
    "absolute_magnitude_h": 19.1,
    "estimated_diameter": {
        "kilometers": {
            "estimated_diameter_min": 0.4023045798,
            "estimated_diameter_max": 0.8995803882
        },
        "meters": {
            "estimated_diameter_min": 402.3045798343,
            "estimated_diameter_max": 899.5803881691
        },
        "miles": {
            "estimated_diameter_min": 0.2499803991,
            "estimated_diameter_max": 0.5589731654
        },
        "feet": {
            "estimated_diameter_min": 1319.8969577037,
            "estimated_diameter_max": 2951.3793207207
        }
    },
    "is_potentially_hazardous_asteroid": false,
    "close_approach_data": [
        {
            "close_approach_date": "2005-06-02",
            "close_approach_date_full": "2005-Jun-02 13:53",
            "epoch_date_close_approach": 1117720380000,
            "relative_velocity": {
                "kilometers_per_second": "28.4702786111",
                "kilometers_per_hour": "102493.0030000277",
                "miles_per_hour": "63685.1662252116"
            },
            "miss_distance": {
                "astronomical": "0.381612937",
                "lunar": "148.447432493",
                "kilometers": "57088482.53964419",
                "miles": "35473138.138862222"
            },
            "orbiting_body": "Earth"
        },
        {
            "close_approach_date": "2010-02-15",
            "close_approach_date_full": "2010-Feb-15 06:07",
            "epoch_date_close_approach": 1266214020000,
            "relative_velocity": {
                "kilometers_per_second": "9.8071878112",
                "kilometers_per_hour": "35305.8761204985",
                "miles_per_hour": "21937.6984149842"
            },
            "miss_distance": {
                "astronomical": "1.8024651936",
                "lunar": "701.1589603104",
                "kilometers": "269644953.711697632",
                "miles": "167549604.8580340416"
            },
            "orbiting_body": "Juptr"
        }
    ],
    "orbital_data": {
        "orbit_id": "12",
        "orbit_determination_date": "2017-04-06 09:10:53",
        "first_observation_date": "2005-06-13",
        "last_observation_date": "2005-07-05",
        "data_arc_in_days": 22,
        "observations_used": 48,
        "orbit_uncertainty": "8",
        "minimum_orbit_intersection": ".196707",
        "jupiter_tisserand_invariant": "3.135",
        "epoch_osculation": "2453538.5",
        "eccentricity": ".722774315982799",
        "semi_major_axis": "2.312833783749906",
        "inclination": "16.05069381858481",
        "ascending_node_longitude": "123.7424214647086",
        "orbital_period": "1284.739451641304",
        "perihelion_distance": ".6411769277181588",
        "perihelion_argument": "28.69555437744618",
        "aphelion_distance": "3.984490639781653",
        "perihelion_time": "2453477.903455163448",
        "mean_anomaly": "16.9799067922212",
        "mean_motion": ".2802124582848967",
        "equinox": "J2000",
        "orbit_class": {
            "orbit_class_type": "APO",
            "orbit_class_description": "Near-Earth asteroid orbits which cross the Earth’s orbit similar to that of 1862 Apollo",
            "orbit_class_range": "a (semi-major axis) > 1.0 AU; q (perihelion) < 1.017 AU"
        }
    },
    "is_sentry_object": false
}